{
  "type": "FeatureCollection",
  "features": [
    {
      "type": "Feature",
      "properties": {
        "norad_id": 43783,
        "name": "KAZSTSAT",
        "group": "resource",
        "lat": -78.55560951390937,
        "lon": 71.89622000973327,
        "alt_km": 572.0005651270903,
        "timestamp": "2025-12-22T20:43:45.500507+00:00",
        "meta_object_name": "KAZSTSAT",
        "meta_object_id": "2018-099AB",
        "meta_epoch": "2025-12-22T08:16:39.683136",
        "meta_mean_motion": 14.99367926,
        "meta_eccentricity": 0.00060889,
        "meta_inclination": 97.4522,
        "meta_ra_of_asc_node": 31.1161,
        "meta_arg_of_pericenter": 287.0325,
        "meta_mean_anomaly": 73.0232,
        "meta_ephemeris_type": 0,
        "meta_classification_type": "U",
        "meta_norad_cat_id": 43783,
        "meta_element_set_no": 999,
        "meta_rev_at_epoch": 38480,
        "meta_bstar": 4.5132456e-05,
        "meta_mean_motion_dot": 4.96e-06,
        "meta_mean_motion_ddot": 0,
        "tle_line1": "1 43783U 18099AB  25356.34490374  .00000496  00000+0  45132-4 0  9994",
        "tle_line2": "2 43783  97.4522  31.1161 0006088 287.0325  73.0232 14.99367926384804"
      },
      "geometry": {
        "type": "Point",
        "coordinates": [
          71.89622000973327,
          -78.55560951390937
        ]
      }
    },
    {
      "type": "Feature",
      "properties": {
        "norad_id": 43831,
        "name": "SAUDISAT 5A",
        "group": "resource",
        "lat": -30.355688249591516,
        "lon": -127.46628839644539,
        "alt_km": 502.02037823515366,
        "timestamp": "2025-12-22T20:43:45.500517+00:00",
        "meta_object_name": "SAUDISAT 5A",
        "meta_object_id": "2018-102A",
        "meta_epoch": "2025-12-22T13:30:50.429088",
        "meta_mean_motion": 15.25770191,
        "meta_eccentricity": 0.00112606,
        "meta_inclination": 97.3336,
        "meta_ra_of_asc_node": 56.5646,
        "meta_arg_of_pericenter": 45.8661,
        "meta_mean_anomaly": 314.3502,
        "meta_ephemeris_type": 0,
        "meta_classification_type": "U",
        "meta_norad_cat_id": 43831,
        "meta_element_set_no": 999,
        "meta_rev_at_epoch": 38872,
        "meta_bstar": 0.00025326402,
        "meta_mean_motion_dot": 6.407e-05,
        "meta_mean_motion_ddot": 0,
        "tle_line1": "1 43831U 18102A   25356.56308367  .00006407  00000+0  25326-3 0  9997",
        "tle_line2": "2 43831  97.3336  56.5646 0011260  45.8661 314.3502 15.25770191388728"
      },
      "geometry": {
        "type": "Point",
        "coordinates": [
          -127.46628839644539,
          -30.355688249591516
        ]
      }
    },
    {
      "type": "Feature",
      "properties": {
        "norad_id": 43833,
        "name": "SAUDISAT 5B",
        "group": "resource",
        "lat": -80.91456518688877,
        "lon": 113.36532505420487,
        "alt_km": 500.2412204187822,
        "timestamp": "2025-12-22T20:43:45.500527+00:00",
        "meta_object_name": "SAUDISAT 5B",
        "meta_object_id": "2018-102C",
        "meta_epoch": "2025-12-22T14:48:18.935712",
        "meta_mean_motion": 15.26118287,
        "meta_eccentricity": 0.00119928,
        "meta_inclination": 97.3432,
        "meta_ra_of_asc_node": 59.3737,
        "meta_arg_of_pericenter": 47.7504,
        "meta_mean_anomaly": 312.475,
        "meta_ephemeris_type": 0,
        "meta_classification_type": "U",
        "meta_norad_cat_id": 43833,
        "meta_element_set_no": 999,
        "meta_rev_at_epoch": 38884,
        "meta_bstar": 0.00023597829,
        "meta_mean_motion_dot": 6.029e-05,
        "meta_mean_motion_ddot": 0,
        "tle_line1": "1 43833U 18102C   25356.61688583  .00006029  00000+0  23598-3 0  9995",
        "tle_line2": "2 43833  97.3432  59.3737 0011992  47.7504 312.4750 15.26118287388848"
      },
      "geometry": {
        "type": "Point",
        "coordinates": [
          113.36532505420487,
          -80.91456518688877
        ]
      }
    },
    {
      "type": "Feature",
      "properties": {
        "norad_id": 44622,
        "name": "GAOFEN-10R",
        "group": "resource",
        "lat": 80.57803826525863,
        "lon": -113.86894072885089,
        "alt_km": 611.5255389994591,
        "timestamp": "2025-12-22T20:43:45.500537+00:00",
        "meta_object_name": "GAOFEN-10R",
        "meta_object_id": "2019-066A",
        "meta_epoch": "2025-12-22T13:52:10.216992",
        "meta_mean_motion": 14.82823334,
        "meta_eccentricity": 0.00071958,
        "meta_inclination": 98.0291,
        "meta_ra_of_asc_node": 304.1231,
        "meta_arg_of_pericenter": 13.0678,
        "meta_mean_anomaly": 347.072,
        "meta_ephemeris_type": 0,
        "meta_classification_type": "U",
        "meta_norad_cat_id": 44622,
        "meta_element_set_no": 999,
        "meta_rev_at_epoch": 33620,
        "meta_bstar": 0.0001808999,
        "meta_mean_motion_dot": 1.41e-05,
        "meta_mean_motion_ddot": 0,
        "tle_line1": "1 44622U 19066A   25356.57789603  .00001410  00000+0  18090-3 0  9992",
        "tle_line2": "2 44622  98.0291 304.1231 0007195  13.0678 347.0720 14.82823334336205"
      },
      "geometry": {
        "type": "Point",
        "coordinates": [
          -113.86894072885089,
          80.57803826525863
        ]
      }
    },
    {
      "type": "Feature",
      "properties": {
        "norad_id": 44804,
        "name": "CARTOSAT-3",
        "group": "resource",
        "lat": 47.213101930726246,
        "lon": -115.54581254332147,
        "alt_km": 502.50013644153205,
        "timestamp": "2025-12-22T20:43:45.500547+00:00",
        "meta_object_name": "CARTOSAT-3",
        "meta_object_id": "2019-081A",
        "meta_epoch": "2025-12-22T13:49:39.686592",
        "meta_mean_motion": 15.19234379,
        "meta_eccentricity": 0.00137848,
        "meta_inclination": 97.4572,
        "meta_ra_of_asc_node": 56.0348,
        "meta_arg_of_pericenter": 52.3083,
        "meta_mean_anomaly": 307.9399,
        "meta_ephemeris_type": 0,
        "meta_classification_type": "U",
        "meta_norad_cat_id": 44804,
        "meta_element_set_no": 999,
        "meta_rev_at_epoch": 33665,
        "meta_bstar": 0.00035213938,
        "meta_mean_motion_dot": 7.37e-05,
        "meta_mean_motion_ddot": 0,
        "tle_line1": "1 44804U 19081A   25356.57615378  .00007370  00000+0  35214-3 0  9996",
        "tle_line2": "2 44804  97.4572  56.0348 0013784  52.3083 307.9399 15.19234379336653"
      },
      "geometry": {
        "type": "Point",
        "coordinates": [
          -115.54581254332147,
          47.213101930726246
        ]
      }
    },
    {
      "type": "Feature",
      "properties": {
        "norad_id": 44819,
        "name": "GAOFEN-12 01",
        "group": "resource",
        "lat": -81.34145186904401,
        "lon": 67.24739816544476,
        "alt_km": 634.5065898987941,
        "timestamp": "2025-12-22T20:43:45.500557+00:00",
        "meta_object_name": "GAOFEN-12 01",
        "meta_object_id": "2019-082A",
        "meta_epoch": "2025-12-22T14:37:51.708000",
        "meta_mean_motion": 14.80668193,
        "meta_eccentricity": 0.00020004,
        "meta_inclination": 97.8124,
        "meta_ra_of_asc_node": 2.6315,
        "meta_arg_of_pericenter": 187.2476,
        "meta_mean_anomaly": 172.8708,
        "meta_ephemeris_type": 0,
        "meta_classification_type": "U",
        "meta_norad_cat_id": 44819,
        "meta_element_set_no": 999,
        "meta_rev_at_epoch": 32796,
        "meta_bstar": 6.2517569e-05,
        "meta_mean_motion_dot": 4.3e-06,
        "meta_mean_motion_ddot": 0,
        "tle_line1": "1 44819U 19082A   25356.60962625  .00000430  00000+0  62518-4 0  9995",
        "tle_line2": "2 44819  97.8124   2.6315 0002000 187.2476 172.8708 14.80668193327969"
      },
      "geometry": {
        "type": "Point",
        "coordinates": [
          67.24739816544476,
          -81.34145186904401
        ]
      }
    },
    {
      "type": "Feature",
      "properties": {
        "norad_id": 44873,
        "name": "CSG-1",
        "group": "resource",
        "lat": 76.4330788362163,
        "lon": 143.0079856056657,
        "alt_km": 614.2951844693071,
        "timestamp": "2025-12-22T20:43:45.500567+00:00",
        "meta_object_name": "CSG-1",
        "meta_object_id": "2019-092A",
        "meta_epoch": "2025-12-22T13:53:36.911616",
        "meta_mean_motion": 14.82152799,
        "meta_eccentricity": 0.00014711,
        "meta_inclination": 97.8804,
        "meta_ra_of_asc_node": 177.7548,
        "meta_arg_of_pericenter": 85.4598,
        "meta_mean_anomaly": 274.6783,
        "meta_ephemeris_type": 0,
        "meta_classification_type": "U",
        "meta_norad_cat_id": 44873,
        "meta_element_set_no": 999,
        "meta_rev_at_epoch": 32531,
        "meta_bstar": 6.9748001e-05,
        "meta_mean_motion_dot": 5.03e-06,
        "meta_mean_motion_ddot": 0,
        "tle_line1": "1 44873U 19092A   25356.57889944  .00000503  00000+0  69748-4 0  9997",
        "tle_line2": "2 44873  97.8804 177.7548 0001471  85.4598 274.6783 14.82152799325314"
      },
      "geometry": {
        "type": "Point",
        "coordinates": [
          143.0079856056657,
          76.4330788362163
        ]
      }
    }
  ]
}